COSMOS 2456 (730)       
1 36111U 09070A   26116.93488095 -.00000007  00000+0  00000+0 0  9996
2 36111  64.9833  72.7188 0006185 317.3531 219.7098  2.13103361127335
COSMOS 2457 (733)       
1 36112U 09070B   26117.16229117 -.00000010  00000+0  00000+0 0  9995
2 36112  64.9688  72.5561 0001155 162.1802 317.2213  2.13100836127344
COSMOS 2460 (732)       
1 36402U 10007C   26115.60205325 -.00000025  00000+0  00000+0 0  9997
2 36402  65.4503 316.2461 0002277  66.9045 297.1399  2.13105948125619
GPS BIIF-1  (PRN 25)    
1 36585U 10022A   26116.10242927 -.00000043  00000+0  00000+0 0  9991
2 36585  54.2771 210.6600 0126615  66.0741 291.6371  2.00559802116542
BEIDOU-2 IGSO-1 (C06)   
1 36828U 10036A   26113.83052642 -.00000109  00000+0  00000+0 0  9999
2 36828  54.2917 163.4511 0058355 224.0017 229.7808  1.00288096 57552
BEIDOU-2 G4 (C04)       
1 37210U 10057A   26117.15852046 -.00000121  00000+0  00000+0 0  9997
2 37210   3.5227  69.2314 0006459 213.4659 149.4463  1.00270118 56780
BEIDOU-2 IGSO-2 (C07)   
1 37256U 10068A   26116.87127000 -.00000222  00000+0  00000+0 0  9994
2 37256  47.6441 272.4653 0053237 211.5565 149.1985  1.00299784 56283
BEIDOU-2 IGSO-3 (C08)   
1 37384U 11013A   26114.73250720 -.00000201  00000+0  00000+0 0  9993
2 37384  62.3393  40.6572 0033701 188.3614 355.5484  1.00280536 55124
GSAT-8 (GAGAN/PRN 127)  
1 37605U 11022A   26117.08879110  .00000076  00000+0  00000+0 0  9999
2 37605   2.0009  82.4145 0004687 227.4448 352.2573  1.00270514 52705
BEIDOU-2 IGSO-4 (C09)   
1 37763U 11038A   26110.95130253 -.00000015  00000+0  00000+0 0  9992
2 37763  54.5868 166.1972 0158375 231.6843 245.8930  1.00257080 54072
GSAT0101 (GALILEO-PFM)  
1 37846U 11060A   26116.22899249 -.00000091  00000+0  00000+0 0  9996
2 37846  57.0096 343.1709 0003765  27.2500 332.8105  1.70475694 90230
GSAT0102 (GALILEO-FM2)  
1 37847U 11060B   26116.45263183 -.00000091  00000+0  00000+0 0  9994
2 37847  57.0107 343.1653 0004708   9.1421 173.7389  1.70475958 90241
COSMOS 2476 (744)       
1 37867U 11064A   26115.64061854  .00000013  00000+0  00000+0 0  9994
2 37867  65.2415  74.6442 0024289 242.1943 290.2948  2.13103647112648
COSMOS 2477 (745)       
1 37868U 11064B   26115.41341578  .00000015  00000+0  00000+0 0  9996
2 37868  65.2482  74.7307 0021218 243.9746 294.7055  2.13102721112632
COSMOS 2475 (743)       
1 37869U 11064C   26116.40173816  .00000005  00000+0  00000+0 0  9994
2 37869  65.2555  74.7187 0027096 255.3204 276.9088  2.13101656112663
BEIDOU-2 IGSO-5 (C10)   
1 37948U 11073A   26116.89264193 -.00000215  00000+0  00000+0 0  9998
2 37948  47.7736 272.1759 0110629 220.6447 136.9806  1.00260215 52618
LUCH 5A (SDCM/PRN 140)  
1 37951U 11074B   26117.10739284 -.00000054  00000+0  00000+0 0  9997
2 37951   8.6271  74.5436 0002752 305.3035  40.8405  1.00273004 52538
